{
  "type": "FeatureCollection",
  "name": "roads_scaffold",
  "features": [
    {
      "type": "Feature",
      "id": "ROAD-001",
      "properties": {
        "id": "ROAD-001",
        "layer": "ROAD_CENTERLINE",
        "source_type": "agent_generated_design",
        "confidence": "medium",
        "geometry_role": "design_proposal",
        "road_class": "greenway",
        "name_zh": "慢行与创新服务廊道",
        "submission_status": "CONTENT TODO",
        "scaffold_placeholder": true,
        "limitations": "TO VERIFY: scaffold placeholder only; not a frozen design decision or official control."
      },
      "geometry": {
        "type": "LineString",
        "coordinates": [
          [
            116.340948,
            39.9845
          ],
          [
            116.35374,
            39.9845
          ]
        ]
      }
    }
  ]
}
